[
  {
    "OBJECT_NAME": "STARLINK-31613",
    "OBJECT_ID": "24065L",
    "EPOCH": "2025-11-11T03:56:09.599136",
    "MEAN_MOTION": 15.30195218,
    "ECCENTRICITY": 0.0001467,
    "INCLINATION": 53.159,
    "RA_OF_ASC_NODE": 112.1397,
    "ARG_OF_PERICENTER": 95.8533,
    "MEAN_ANOMALY": 264.2635,
    "EPHEMERIS_TYPE": 0,
    "CLASSIFICATION_TYPE": "U",
    "NORAD_CAT_ID": 59431,
    "ELEMENT_SET_NO": 999,
    "REV_AT_EPOCH": 9078,
    "BSTAR": 8.658800000000001e-06,
    "MEAN_MOTION_DOT": -1.03e-06,
    "MEAN_MOTION_DDOT": 0.0,
    "TLE_LINE1": "1 59431U 24065L   25315.16399999 -.00000103  00000+0  86588-5 0  9994",
    "TLE_LINE2": "2 59431  53.1590 112.1397 0001467  95.8533 264.2635 15.30195218 90789",
    "COMMENT": "Grouped by shell and plane from TLE"
  },
  {
    "OBJECT_NAME": "STARLINK-31780",
    "OBJECT_ID": "24065M",
    "EPOCH": "2025-11-11T04:06:47.830752",
    "MEAN_MOTION": 15.30195875,
    "ECCENTRICITY": 0.0001191,
    "INCLINATION": 53.1613,
    "RA_OF_ASC_NODE": 112.1824,
    "ARG_OF_PERICENTER": 88.7312,
    "MEAN_ANOMALY": 271.3825,
    "EPHEMERIS_TYPE": 0,
    "CLASSIFICATION_TYPE": "U",
    "NORAD_CAT_ID": 59432,
    "ELEMENT_SET_NO": 999,
    "REV_AT_EPOCH": 9078,
    "BSTAR": 4.8257e-05,
    "MEAN_MOTION_DOT": 1.07e-05,
    "MEAN_MOTION_DDOT": 0.0,
    "TLE_LINE1": "1 59432U 24065M   25315.17138693  .00001070  00000+0  48257-4 0  9991",
    "TLE_LINE2": "2 59432  53.1613 112.1824 0001191  88.7312 271.3825 15.30195875 90780",
    "COMMENT": "Grouped by shell and plane from TLE"
  },
  {
    "OBJECT_NAME": "STARLINK-31740",
    "OBJECT_ID": "24065N",
    "EPOCH": "2025-11-11T03:31:05.560896",
    "MEAN_MOTION": 15.3019381,
    "ECCENTRICITY": 0.0001469,
    "INCLINATION": 53.1625,
    "RA_OF_ASC_NODE": 114.1696,
    "ARG_OF_PERICENTER": 99.7182,
    "MEAN_ANOMALY": 260.3985,
    "EPHEMERIS_TYPE": 0,
    "CLASSIFICATION_TYPE": "U",
    "NORAD_CAT_ID": 59433,
    "ELEMENT_SET_NO": 999,
    "REV_AT_EPOCH": 9075,
    "BSTAR": 3.175e-05,
    "MEAN_MOTION_DOT": 5.81e-06,
    "MEAN_MOTION_DDOT": 0.0,
    "TLE_LINE1": "1 59433U 24065N   25315.14659214  .00000581  00000+0  31750-4 0  9992",
    "TLE_LINE2": "2 59433  53.1625 114.1696 0001469  99.7182 260.3985 15.30193810 90757",
    "COMMENT": "Grouped by shell and plane from TLE"
  },
  {
    "OBJECT_NAME": "STARLINK-31580",
    "OBJECT_ID": "24065P",
    "EPOCH": "2025-11-11T03:43:14.947968",
    "MEAN_MOTION": 15.30202283,
    "ECCENTRICITY": 0.0001062,
    "INCLINATION": 53.1589,
    "RA_OF_ASC_NODE": 114.2198,
    "ARG_OF_PERICENTER": 94.0143,
    "MEAN_ANOMALY": 266.0979,
    "EPHEMERIS_TYPE": 0,
    "CLASSIFICATION_TYPE": "U",
    "NORAD_CAT_ID": 59434,
    "ELEMENT_SET_NO": 999,
    "REV_AT_EPOCH": 9075,
    "BSTAR": 0.0,
    "MEAN_MOTION_DOT": -1.389e-05,
    "MEAN_MOTION_DDOT": 0.0,
    "TLE_LINE1": "1 59434U 24065P   25315.15503412 -.00001389  00000+0 -34763-4 0  9998",
    "TLE_LINE2": "2 59434  53.1589 114.2198 0001062  94.0143 266.0979 15.30202283 90750",
    "COMMENT": "Grouped by shell and plane from TLE"
  },
  {
    "OBJECT_NAME": "STARLINK-31696",
    "OBJECT_ID": "24065Q",
    "EPOCH": "2025-11-11T03:51:36.063648",
    "MEAN_MOTION": 15.30200324,
    "ECCENTRICITY": 0.0001076,
    "INCLINATION": 53.1622,
    "RA_OF_ASC_NODE": 112.1205,
    "ARG_OF_PERICENTER": 87.4858,
    "MEAN_ANOMALY": 272.6266,
    "EPHEMERIS_TYPE": 0,
    "CLASSIFICATION_TYPE": "U",
    "NORAD_CAT_ID": 59435,
    "ELEMENT_SET_NO": 999,
    "REV_AT_EPOCH": 9078,
    "BSTAR": 0.0,
    "MEAN_MOTION_DOT": -1.848e-05,
    "MEAN_MOTION_DDOT": 0.0,
    "TLE_LINE1": "1 59435U 24065Q   25315.16083407 -.00001848  00000+0 -50295-4 0  9995",
    "TLE_LINE2": "2 59435  53.1622 112.1205 0001076  87.4858 272.6266 15.30200324 90788",
    "COMMENT": "Grouped by shell and plane from TLE"
  },
  {
    "OBJECT_NAME": "STARLINK-31700",
    "OBJECT_ID": "24065R",
    "EPOCH": "2025-11-11T03:42:30.449376",
    "MEAN_MOTION": 15.30148748,
    "ECCENTRICITY": 0.0001173,
    "INCLINATION": 53.162,
    "RA_OF_ASC_NODE": 112.0799,
    "ARG_OF_PERICENTER": 80.9585,
    "MEAN_ANOMALY": 279.1549,
    "EPHEMERIS_TYPE": 0,
    "CLASSIFICATION_TYPE": "U",
    "NORAD_CAT_ID": 59436,
    "ELEMENT_SET_NO": 999,
    "REV_AT_EPOCH": 9078,
    "BSTAR": 0.00038995999999999996,
    "MEAN_MOTION_DOT": 0.0001119,
    "MEAN_MOTION_DDOT": 0.0,
    "TLE_LINE1": "1 59436U 24065R   25315.15451909  .00011190  00000+0  38996-3 0  9993",
    "TLE_LINE2": "2 59436  53.1620 112.0799 0001173  80.9585 279.1549 15.30148748 90784",
    "COMMENT": "Grouped by shell and plane from TLE"
  },
  {
    "OBJECT_NAME": "STARLINK-31706",
    "OBJECT_ID": "24065S",
    "EPOCH": "2025-11-11T03:32:36.413952",
    "MEAN_MOTION": 15.30195233,
    "ECCENTRICITY": 0.000117,
    "INCLINATION": 53.1589,
    "RA_OF_ASC_NODE": 114.1793,
    "ARG_OF_PERICENTER": 95.3852,
    "MEAN_ANOMALY": 264.7282,
    "EPHEMERIS_TYPE": 0,
    "CLASSIFICATION_TYPE": "U",
    "NORAD_CAT_ID": 59437,
    "ELEMENT_SET_NO": 999,
    "REV_AT_EPOCH": 9075,
    "BSTAR": 3.4612e-05,
    "MEAN_MOTION_DOT": 6.66e-06,
    "MEAN_MOTION_DDOT": 0.0,
    "TLE_LINE1": "1 59437U 24065S   25315.14764368  .00000666  00000+0  34612-4 0  9997",
    "TLE_LINE2": "2 59437  53.1589 114.1793 0001170  95.3852 264.7282 15.30195233 90752",
    "COMMENT": "Grouped by shell and plane from TLE"
  },
  {
    "OBJECT_NAME": "STARLINK-31711",
    "OBJECT_ID": "24065T",
    "EPOCH": "2025-11-11T03:47:02.457312",
    "MEAN_MOTION": 15.30200157,
    "ECCENTRICITY": 0.000151,
    "INCLINATION": 53.1604,
    "RA_OF_ASC_NODE": 112.0994,
    "ARG_OF_PERICENTER": 98.8382,
    "MEAN_ANOMALY": 261.279,
    "EPHEMERIS_TYPE": 0,
    "CLASSIFICATION_TYPE": "U",
    "NORAD_CAT_ID": 59438,
    "ELEMENT_SET_NO": 999,
    "REV_AT_EPOCH": 9078,
    "BSTAR": 0.00011874,
    "MEAN_MOTION_DOT": 3.159e-05,
    "MEAN_MOTION_DDOT": 0.0,
    "TLE_LINE1": "1 59438U 24065T   25315.15766733  .00003159  00000+0  11874-3 0  9991",
    "TLE_LINE2": "2 59438  53.1604 112.0994 0001510  98.8382 261.2790 15.30200157 90786",
    "COMMENT": "Grouped by shell and plane from TLE"
  },
  {
    "OBJECT_NAME": "STARLINK-31708",
    "OBJECT_ID": "24065U",
    "EPOCH": "2025-11-11T03:33:21.808512",
    "MEAN_MOTION": 15.30206465,
    "ECCENTRICITY": 9.03e-05,
    "INCLINATION": 53.1596,
    "RA_OF_ASC_NODE": 112.041,
    "ARG_OF_PERICENTER": 88.5779,
    "MEAN_ANOMALY": 271.5325,
    "EPHEMERIS_TYPE": 0,
    "CLASSIFICATION_TYPE": "U",
    "NORAD_CAT_ID": 59439,
    "ELEMENT_SET_NO": 999,
    "REV_AT_EPOCH": 9078,
    "BSTAR": 0.0,
    "MEAN_MOTION_DOT": -4.62e-05,
    "MEAN_MOTION_DDOT": 0.0,
    "TLE_LINE1": "1 59439U 24065U   25315.14816908 -.00004620  00000+0 -14393-3 0  9996",
    "TLE_LINE2": "2 59439  53.1596 112.0410 0000903  88.5779 271.5325 15.30206465 90787",
    "COMMENT": "Grouped by shell and plane from TLE"
  },
  {
    "OBJECT_NAME": "STARLINK-31693",
    "OBJECT_ID": "24065W",
    "EPOCH": "2025-11-10T10:55:16.504032",
    "MEAN_MOTION": 15.30194537,
    "ECCENTRICITY": 0.0001704,
    "INCLINATION": 53.1626,
    "RA_OF_ASC_NODE": 115.5317,
    "ARG_OF_PERICENTER": 94.7345,
    "MEAN_ANOMALY": 265.3851,
    "EPHEMERIS_TYPE": 0,
    "CLASSIFICATION_TYPE": "U",
    "NORAD_CAT_ID": 59441,
    "ELEMENT_SET_NO": 999,
    "REV_AT_EPOCH": 9067,
    "BSTAR": 4.8948000000000006e-05,
    "MEAN_MOTION_DOT": 1.09e-05,
    "MEAN_MOTION_DDOT": 0.0,
    "TLE_LINE1": "1 59441U 24065W   25314.45505213  .00001090  00000+0  48948-4 0  9996",
    "TLE_LINE2": "2 59441  53.1626 115.5317 0001704  94.7345 265.3851 15.30194537 90675",
    "COMMENT": "Grouped by shell and plane from TLE"
  },
  {
    "OBJECT_NAME": "STARLINK-32371",
    "OBJECT_ID": "24154P",
    "EPOCH": "2025-11-10T20:58:14.840832",
    "MEAN_MOTION": 15.30207514,
    "ECCENTRICITY": 0.000191,
    "INCLINATION": 53.1546,
    "RA_OF_ASC_NODE": 115.7324,
    "ARG_OF_PERICENTER": 104.411,
    "MEAN_ANOMALY": 255.7102,
    "EPHEMERIS_TYPE": 0,
    "CLASSIFICATION_TYPE": "U",
    "NORAD_CAT_ID": 60916,
    "ELEMENT_SET_NO": 999,
    "REV_AT_EPOCH": 6814,
    "BSTAR": 0.0,
    "MEAN_MOTION_DOT": -4.823e-05,
    "MEAN_MOTION_DDOT": 0.0,
    "TLE_LINE1": "1 60916U 24154P   25314.87378288 -.00004823  00000+0 -15075-3 0  9993",
    "TLE_LINE2": "2 60916  53.1546 115.7324 0001910 104.4110 255.7102 15.30207514 68142",
    "COMMENT": "Grouped by shell and plane from TLE"
  },
  {
    "OBJECT_NAME": "STARLINK-32369",
    "OBJECT_ID": "24154Q",
    "EPOCH": "2025-11-10T20:30:54.360576",
    "MEAN_MOTION": 15.30194139,
    "ECCENTRICITY": 0.0001298,
    "INCLINATION": 53.1609,
    "RA_OF_ASC_NODE": 115.6184,
    "ARG_OF_PERICENTER": 83.2372,
    "MEAN_ANOMALY": 276.8777,
    "EPHEMERIS_TYPE": 0,
    "CLASSIFICATION_TYPE": "U",
    "NORAD_CAT_ID": 60917,
    "ELEMENT_SET_NO": 999,
    "REV_AT_EPOCH": 6814,
    "BSTAR": 6.7487e-05,
    "MEAN_MOTION_DOT": 1.64e-05,
    "MEAN_MOTION_DDOT": 0.0,
    "TLE_LINE1": "1 60917U 24154Q   25314.85479584  .00001640  00000+0  67487-4 0  9990",
    "TLE_LINE2": "2 60917  53.1609 115.6184 0001298  83.2372 276.8777 15.30194139 68149",
    "COMMENT": "Grouped by shell and plane from TLE"
  },
  {
    "OBJECT_NAME": "STARLINK-32317",
    "OBJECT_ID": "24154R",
    "EPOCH": "2025-11-11T03:50:56.747328",
    "MEAN_MOTION": 15.30191678,
    "ECCENTRICITY": 0.0001457,
    "INCLINATION": 53.1596,
    "RA_OF_ASC_NODE": 114.6819,
    "ARG_OF_PERICENTER": 90.9306,
    "MEAN_ANOMALY": 269.1862,
    "EPHEMERIS_TYPE": 0,
    "CLASSIFICATION_TYPE": "U",
    "NORAD_CAT_ID": 60918,
    "ELEMENT_SET_NO": 999,
    "REV_AT_EPOCH": 6818,
    "BSTAR": 4.3607000000000004e-05,
    "MEAN_MOTION_DOT": 9.32e-06,
    "MEAN_MOTION_DDOT": 0.0,
    "TLE_LINE1": "1 60918U 24154R   25315.16037902  .00000932  00000+0  43607-4 0  9991",
    "TLE_LINE2": "2 60918  53.1596 114.6819 0001457  90.9306 269.1862 15.30191678 68187",
    "COMMENT": "Grouped by shell and plane from TLE"
  }
]